#aV2021  9 25  0  0  0.00000000     288 DD+AD WGS84 FIT  NGA
## 2176 518400.00000000   300.00000000 59482 0.0000000000000
+   32     1  2  3  4  5  6  7  8  9 10 11 12 13 14 15 16 17
+         18 19 20 21 22 23 24 25 26 27 28 29 30 31 32  0  0
+          0  0  0  0  0  0  0  0  0  0  0  0  0  0  0  0  0
+          0  0  0  0  0  0  0  0  0  0  0  0  0  0  0  0  0
+          0  0  0  0  0  0  0  0  0  0  0  0  0  0  0  0  0
++         2  2  2  2  2  2  2  2  2  2  2  2  2  2  2  2  2
++         2  2  2  2  2  2  2  2  2  2  2  2  2  2  2  0  0
++         0  0  0  0  0  0  0  0  0  0  0  0  0  0  0  0  0
++         0  0  0  0  0  0  0  0  0  0  0  0  0  0  0  0  0
++         0  0  0  0  0  0  0  0  0  0  0  0  0  0  0  0  0
%c cc cc ccc ccc cccc cccc cccc cccc ccccc ccccc ccccc ccccc
%c cc cc ccc ccc cccc cccc cccc cccc ccccc ccccc ccccc ccccc
%f  0.0000000  0.000000000  0.00000000000  0.000000000000000
%f  0.0000000  0.000000000  0.00000000000  0.000000000000000
%i    0    0    0    0      0      0      0      0         0
%i    0    0    0    0      0      0      0      0         0
/*      NGA, ST. LOUIS,MO.                                  
/*   EPHEMERIS COMPUTED FROM 2 DAYS OF DATA                 
/*   EPOCHA v7 SMOOTHER                                     
/*   G2139 IERS2010 SATIGS SATAPC                           
*  2021  9 25  6 55  0.00000000
P  1  13800.447914 -20859.392948   8141.887774    557.698166                    
V  1  -1812.291318  10858.232418  30214.551192     -0.109761                    
P  2 -15275.311458    170.240398 -21086.296729   -634.177591                    
V  2   7376.503726 -27330.523303  -5325.331384     -0.020116                    
P  3  19361.592437 -12466.254098 -13249.753737   -301.559206                    
V  3  16782.740531   -753.443268  25533.163874     -0.136122                    
P  4   8401.802668 -13458.431097 -21287.932194   -204.190720                    
V  4  17003.711531  21045.072006  -6659.115466      0.001838                    
P  5 -26023.593181   5704.778261    387.270392    -55.544202                    
V  5  -1244.927924  -2598.404507 -31569.284791     -0.012573                    
P  6  -9005.803045 -14406.181374 -20339.574715     81.248843                    
V  6   9884.778337 -23967.250416  12615.127944      0.076362                    
P  7   4611.409758 -25156.835544   6494.547796    251.416686                    
V  7   5910.569116  -6200.239131 -30399.520107      0.068031                    
P  8  16462.672439  -2785.283264  20714.706328    -37.737540                    
V  8  16554.963254  20367.259193 -10105.196070     -0.013901                    
P  9  -2766.751165 -20898.185382 -16211.621212   -361.388537                    
V  9  14860.755506  14244.491375 -21012.244739     -0.003844                    
P 10  11086.228903  12552.518736  20799.032318   -210.414382                    
V 10 -25554.921768   5061.897613  10348.381451     -0.079222                    
P 11 -15367.808329  -2453.752113 -21535.550248     19.625512                    
V 11  10605.539780 -25176.180221  -4714.912900      0.016212                    
P 12 -20700.032077  10770.714377 -12811.040100   -102.316796                    
V 12 -16018.316958   -508.997494  26089.842864     -0.054575                    
P 13 -18418.980338  -6045.437821  18078.035977    190.378084                    
V 13 -11084.447642 -20398.673058 -17824.101406      0.054261                    
P 14 -10666.938186 -13224.004801  20427.134598     -5.847740                    
V 14  25622.508264  -4199.267880  10607.032636     -0.079304                    
P 15 -16277.986272   5153.543498  20029.578768   -118.622231                    
V 15 -18347.496781 -18936.373058  -9510.034671      0.027520                    
P 16  26590.756552    448.424107  -3645.801157   -396.376161                    
V 16  -4089.580134   2350.574073 -31258.011645     -0.063831                    
P 17 -12211.889785 -23026.166510   5511.332882    509.753751                    
V 17   5440.076500   3991.264262  31199.930648      0.056286                    
P 18  -4082.133465  24981.354684   7873.159545    318.335963                    
V 18  -5974.933630   8420.224361 -29862.292716     -0.045694                    
P 19 -16919.882079 -20156.081194  -4456.623857     57.454708                    
V 19  -1247.500403  -5508.507171  31411.594168      0.049843                    
P 20 -24073.070946   -520.848199 -10939.062434    518.965316                    
V 20  12291.571769  -7398.300406 -27026.487602     -0.001975                    
P 21  15933.648439 -14070.055324  16261.131371    144.469705                    
V 21  -3407.747116  19436.040672  21600.531410      0.019110                    
P 22  23601.560224 -10612.048132  -5311.384124   -504.845926                    
V 22   7753.883385   1670.792535  30341.720492      0.092539                    
P 23  -2141.986636  15525.857394  21408.953012     53.131275                    
V 23 -26833.820223   4710.200470  -6166.055052     -0.048072                    
P 24 -14680.090102  17952.405500  12310.248354    241.861190                    
V 24   1345.404731 -16543.642340  25597.479026      0.077080                    
P 25 -11064.237128  15306.556736 -18828.750549    213.956210                    
V 25 -23386.478814   2466.270135  16235.171954      0.062524                    
P 26  21212.772074   6484.401040 -14871.041754    137.979955                    
V 26 -17801.978102   6248.440606 -22475.739271      0.041448                    
P 27  20121.132749   7784.351442  15553.300876   -197.639029                    
V 27  11533.662275  16286.450731 -22447.479891     -0.051847                    
P 28 -16679.409910 -11057.991222  17910.427591    494.656306                    
V 28  21549.968855  -3024.893128  18973.972174     -0.071831                    
P 29  -1177.003314  19307.894879 -18212.632952   -416.860372                    
V 29 -14303.393551 -18064.342224 -18332.407428     -0.056588                    
P 30  -3990.693414 -21045.034640  15621.700002   -476.269672                    
V 30   9742.169810 -17515.650523 -21438.632754     -0.037213                    
P 31  10951.987227  12275.128210 -20855.020749   -141.581184                    
V 31 -10769.730337  24104.878253   9035.278428     -0.020138                    
P 32  15974.915027  21256.737107   2020.019947     -3.702736                    
V 32  -3655.026307    -86.415231  31435.944661     -0.036428                    
EOF
